{
  "type": "FeatureCollection",
  "features": [
    {
      "type": "Feature",
      "properties": {
        "norad_id": 34918,
        "name": "COSMOS 2251 DEB",
        "group": "cosmos-2251-debris",
        "lat": -64.47758778481074,
        "lon": -71.15977701867655,
        "alt_km": 672.8313687404961,
        "timestamp": "2025-12-06T11:28:11.457764+00:00",
        "meta_object_name": "COSMOS 2251 DEB",
        "meta_object_id": "1993-036ADP",
        "meta_epoch": "2025-12-02T07:49:20.078112",
        "meta_mean_motion": 14.60858458,
        "meta_eccentricity": 0.0034182,
        "meta_inclination": 74.0712,
        "meta_ra_of_asc_node": 333.4916,
        "meta_arg_of_pericenter": 302.4495,
        "meta_mean_anomaly": 120.4085,
        "meta_ephemeris_type": 0,
        "meta_classification_type": "U",
        "meta_norad_cat_id": 34918,
        "meta_element_set_no": 999,
        "meta_rev_at_epoch": 65184,
        "meta_bstar": 0.0024749,
        "meta_mean_motion_dot": 0.00012194,
        "meta_mean_motion_ddot": 0,
        "tle_line1": "1 34918U 93036ADP 25336.32592683  .00012194  00000+0  24749-2 0  9997",
        "tle_line2": "2 34918  74.0712 333.4916 0034182 302.4495 120.4085 14.60858458651845"
      },
      "geometry": {
        "type": "Point",
        "coordinates": [
          -71.15977701867655,
          -64.47758778481074
        ]
      }
    },
    {
      "type": "Feature",
      "properties": {
        "norad_id": 34924,
        "name": "COSMOS 2251 DEB",
        "group": "cosmos-2251-debris",
        "lat": -45.353103178598964,
        "lon": 84.5526884090453,
        "alt_km": 721.9260789357813,
        "timestamp": "2025-12-06T11:28:11.457776+00:00",
        "meta_object_name": "COSMOS 2251 DEB",
        "meta_object_id": "1993-036ADV",
        "meta_epoch": "2025-12-05T03:04:17.971392",
        "meta_mean_motion": 14.59906916,
        "meta_eccentricity": 0.00551206,
        "meta_inclination": 74.0402,
        "meta_ra_of_asc_node": 103.9681,
        "meta_arg_of_pericenter": 190.3489,
        "meta_mean_anomaly": 229.5741,
        "meta_ephemeris_type": 0,
        "meta_classification_type": "U",
        "meta_norad_cat_id": 34924,
        "meta_element_set_no": 999,
        "meta_rev_at_epoch": 87612,
        "meta_bstar": 0.0023760695,
        "meta_mean_motion_dot": 0.00011614,
        "meta_mean_motion_ddot": 0,
        "tle_line1": "1 34924U 93036ADV 25339.12798578  .00011614  00000+0  23761-2 0  9995",
        "tle_line2": "2 34924  74.0402 103.9681 0055120 190.3489 229.5741 14.59906916876120"
      },
      "geometry": {
        "type": "Point",
        "coordinates": [
          84.5526884090453,
          -45.353103178598964
        ]
      }
    },
    {
      "type": "Feature",
      "properties": {
        "norad_id": 34944,
        "name": "COSMOS 2251 DEB",
        "group": "cosmos-2251-debris",
        "lat": 5.739767464863693,
        "lon": -114.98556613493403,
        "alt_km": 832.3234775573274,
        "timestamp": "2025-12-06T11:28:11.457787+00:00",
        "meta_object_name": "COSMOS 2251 DEB",
        "meta_object_id": "1993-036ADX",
        "meta_epoch": "2025-12-04T10:12:22.291200",
        "meta_mean_motion": 14.14155566,
        "meta_eccentricity": 0.0219658,
        "meta_inclination": 73.7499,
        "meta_ra_of_asc_node": 247.036,
        "meta_arg_of_pericenter": 96.0924,
        "meta_mean_anomaly": 266.529,
        "meta_ephemeris_type": 0,
        "meta_classification_type": "U",
        "meta_norad_cat_id": 34944,
        "meta_element_set_no": 999,
        "meta_rev_at_epoch": 63965,
        "meta_bstar": 0.0011088,
        "meta_mean_motion_dot": 2.638e-05,
        "meta_mean_motion_ddot": 0,
        "tle_line1": "1 34944U 93036ADX 25338.42525800  .00002638  00000+0  11088-2 0  9990",
        "tle_line2": "2 34944  73.7499 247.0360 0219658  96.0924 266.5290 14.14155566639655"
      },
      "geometry": {
        "type": "Point",
        "coordinates": [
          -114.98556613493403,
          5.739767464863693
        ]
      }
    },
    {
      "type": "Feature",
      "properties": {
        "norad_id": 34946,
        "name": "COSMOS 2251 DEB",
        "group": "cosmos-2251-debris",
        "lat": 63.47176898732407,
        "lon": 139.0877303689876,
        "alt_km": 648.2678202243796,
        "timestamp": "2025-12-06T11:28:11.457797+00:00",
        "meta_object_name": "COSMOS 2251 DEB",
        "meta_object_id": "1993-036ADZ",
        "meta_epoch": "2025-12-05T18:32:22.948512",
        "meta_mean_motion": 14.61939595,
        "meta_eccentricity": 0.00489069,
        "meta_inclination": 74.0231,
        "meta_ra_of_asc_node": 355.4625,
        "meta_arg_of_pericenter": 134.8495,
        "meta_mean_anomaly": 225.6661,
        "meta_ephemeris_type": 0,
        "meta_classification_type": "U",
        "meta_norad_cat_id": 34946,
        "meta_element_set_no": 999,
        "meta_rev_at_epoch": 88107,
        "meta_bstar": 0.001032685,
        "meta_mean_motion_dot": 5.233e-05,
        "meta_mean_motion_ddot": 0,
        "tle_line1": "1 34946U 93036ADZ 25339.77248783  .00005233  00000+0  10327-2 0  9992",
        "tle_line2": "2 34946  74.0231 355.4625 0048906 134.8495 225.6661 14.61939595881070"
      },
      "geometry": {
        "type": "Point",
        "coordinates": [
          139.0877303689876,
          63.47176898732407
        ]
      }
    },
    {
      "type": "Feature",
      "properties": {
        "norad_id": 34949,
        "name": "COSMOS 2251 DEB",
        "group": "cosmos-2251-debris",
        "lat": 71.63418259442743,
        "lon": -117.80089174163687,
        "alt_km": 696.8070540081308,
        "timestamp": "2025-12-06T11:28:11.457807+00:00",
        "meta_object_name": "COSMOS 2251 DEB",
        "meta_object_id": "1993-036AEC",
        "meta_epoch": "2025-12-05T02:26:13.832736",
        "meta_mean_motion": 14.73914183,
        "meta_eccentricity": 0.00804595,
        "meta_inclination": 74.0172,
        "meta_ra_of_asc_node": 124.5765,
        "meta_arg_of_pericenter": 271.443,
        "meta_mean_anomaly": 87.7527,
        "meta_ephemeris_type": 0,
        "meta_classification_type": "U",
        "meta_norad_cat_id": 34949,
        "meta_element_set_no": 999,
        "meta_rev_at_epoch": 88249,
        "meta_bstar": 0.0010189361,
        "meta_mean_motion_dot": 7.012e-05,
        "meta_mean_motion_ddot": 0,
        "tle_line1": "1 34949U 93036AEC 25339.10154899  .00007012  00000+0  10189-2 0  9999",
        "tle_line2": "2 34949  74.0172 124.5765 0080459 271.4430  87.7527 14.73914183882497"
      },
      "geometry": {
        "type": "Point",
        "coordinates": [
          -117.80089174163687,
          71.63418259442743
        ]
      }
    },
    {
      "type": "Feature",
      "properties": {
        "norad_id": 34953,
        "name": "COSMOS 2251 DEB",
        "group": "cosmos-2251-debris",
        "lat": -8.389425930727743,
        "lon": -138.02000715278263,
        "alt_km": 705.1675292812852,
        "timestamp": "2025-12-06T11:28:11.457818+00:00",
        "meta_object_name": "COSMOS 2251 DEB",
        "meta_object_id": "1993-036AEG",
        "meta_epoch": "2025-12-05T22:21:07.961760",
        "meta_mean_motion": 14.68864076,
        "meta_eccentricity": 0.00577119,
        "meta_inclination": 74.0935,
        "meta_ra_of_asc_node": 40.6233,
        "meta_arg_of_pericenter": 34.7446,
        "meta_mean_anomaly": 144.5754,
        "meta_ephemeris_type": 0,
        "meta_classification_type": "U",
        "meta_norad_cat_id": 34953,
        "meta_element_set_no": 999,
        "meta_rev_at_epoch": 88028,
        "meta_bstar": 0.0013032039,
        "meta_mean_motion_dot": 7.789e-05,
        "meta_mean_motion_ddot": 0,
        "tle_line1": "1 34953U 93036AEG 25339.93134215  .00007789  00000+0  13032-2 0  9996",
        "tle_line2": "2 34953  74.0935  40.6233 0057711  34.7446 144.5754 14.68864076880287"
      },
      "geometry": {
        "type": "Point",
        "coordinates": [
          -138.02000715278263,
          -8.389425930727743
        ]
      }
    },
    {
      "type": "Feature",
      "properties": {
        "norad_id": 34955,
        "name": "COSMOS 2251 DEB",
        "group": "cosmos-2251-debris",
        "lat": -27.1950945348041,
        "lon": -109.21475464426106,
        "alt_km": 517.0954045746812,
        "timestamp": "2025-12-06T11:28:11.457828+00:00",
        "meta_object_name": "COSMOS 2251 DEB",
        "meta_object_id": "1993-036AEJ",
        "meta_epoch": "2025-12-03T01:58:24.293568",
        "meta_mean_motion": 15.00189355,
        "meta_eccentricity": 0.00783052,
        "meta_inclination": 74.0373,
        "meta_ra_of_asc_node": 266.1437,
        "meta_arg_of_pericenter": 338.174,
        "meta_mean_anomaly": 21.6115,
        "meta_ephemeris_type": 0,
        "meta_classification_type": "U",
        "meta_norad_cat_id": 34955,
        "meta_element_set_no": 999,
        "meta_rev_at_epoch": 89889,
        "meta_bstar": 0.0013091752,
        "meta_mean_motion_dot": 0.00017463,
        "meta_mean_motion_ddot": 0,
        "tle_line1": "1 34955U 93036AEJ 25337.08222562  .00017463  00000+0  13092-2 0  9991",
        "tle_line2": "2 34955  74.0373 266.1437 0078305 338.1740  21.6115 15.00189355898895"
      },
      "geometry": {
        "type": "Point",
        "coordinates": [
          -109.21475464426106,
          -27.1950945348041
        ]
      }
    }
  ]
}